EUTELSAT QUANTUM        
1 49056U 21069B   25337.08322404  .00000145  00000+0  00000+0 0  9993
2 49056   0.0169  10.7280 0003748 255.0351 244.0851  1.00271603 15968
EUTELSAT KONNECT VHTS   
1 53765U 22110A   25337.07429733  .00000036  00000+0  00000+0 0  9994
2 53765   0.0598 107.4799 0002765 122.6736 231.4548  1.00268981  4864
EUTELSAT HOTBIRD 13F    
1 54048U 22134A   25336.83169500  .00000107  00000+0  00000+0 0  9990
2 54048   0.0542 289.0481 0001918  66.1354  29.1621  1.00271371 11409
EUTELSAT HOTBIRD 13G    
1 54225U 22146A   25337.00502889  .00000107  00000+0  00000+0 0  9991
2 54225   0.0475 238.4149 0002105 306.4933 262.0024  1.00271219  5490
EUTELSAT 10B            
1 54259U 22157A   25337.07577066  .00000087  00000+0  00000+0 0  9993
2 54259   0.0603 103.8512 0001044  72.4350 293.1780  1.00268388 11060
EUTELSAT 36D            
1 59346U 24059A   25337.08088404  .00000000  00000+0  00000+0 0  9997
2 59346   0.0226 339.2860 0000606 322.1144 195.7445  1.00270583  6185
